OBJECT_NAME,OBJECT_ID,EPOCH,MEAN_MOTION,ECCENTRICITY,INCLINATION,RA_OF_ASC_NODE,ARG_OF_PERICENTER,MEAN_ANOMALY,EPHEMERIS_TYPE,CLASSIFICATION_TYPE,NORAD_CAT_ID,ELEMENT_SET_NO,REV_AT_EPOCH,BSTAR,MEAN_MOTION_DOT,MEAN_MOTION_DDOT
GOSAT-GW (IBUKI GW),2025-141A,2026-07-20T14:22:39.129600,14.67554701,.00014304,98.0564,138.3734,86.4810,273.6558,0,U,64694,999,5674,.60819244E-4,.297E-5,0
IONOSFERA-M 3,2025-155A,2026-07-20T14:38:25.874016,14.21491362,.00024196,98.6044,162.6773,104.2519,255.8927,0,U,64876,999,5115,.25950654E-4,.14E-6,0
IONOSFERA-M 4,2025-155B,2026-07-20T15:28:31.195200,14.21493804,.0001894,98.6043,162.6283,94.0466,266.0928,0,U,64877,999,5115,.27047042E-4,.16E-6,0
MICROCARB,2025-156A,2026-07-20T04:04:52.035744,14.72888403,.00179969,98.0071,277.8021,155.3183,204.8890,0,U,64899,999,5282,.51611378E-4,.281E-5,0
CO3D 3,2025-156B,2026-07-20T13:26:05.402400,15.20195701,.00017263,97.4331,279.7734,90.4724,269.6709,0,U,64900,999,5460,.11724065E-3,.2471E-4,0
CO3D 4,2025-156C,2026-07-20T13:26:18.631104,15.20192398,.00018682,97.4336,279.7731,142.4125,217.7241,0,U,64901,999,5460,.78633784E-4,.1635E-4,0
CO3D 2,2025-156D,2026-07-20T12:38:17.759616,15.20201512,.0001178,97.4332,279.6393,92.0776,268.0594,0,U,64902,999,5459,.11103249E-3,.2337E-4,0
CO3D 1,2025-156E,2026-07-20T12:38:31.053984,15.20203530,.00013368,97.4331,279.6395,102.5352,257.6033,0,U,64903,999,5459,.11459938E-3,.2414E-4,0
PRSC-S1,2025-164A,2026-07-20T14:36:46.933056,15.06662965,.0007461,41.1302,99.5463,230.6794,129.3359,0,U,65055,999,5347,.19018195E-3,.2695E-4,0
CSG-3,2026-001A,2026-07-20T09:56:29.192064,14.82165425,.00014691,97.8898,24.5366,93.0499,267.0882,0,U,67304,999,2938,.2542272E-4,.15E-5,0
PRSC-E03,2026-092A,2026-07-20T10:57:30.044736,15.06821808,.00050069,38.0004,253.4742,283.2867,76.7337,0,U,68835,999,1297,.77984655E-4,.1074E-4,0
